[{"OBJECT_NAME":"HIBARI","OBJECT_ID":"2021-102F","EPOCH":"2026-03-09T16:55:51.090816","MEAN_MOTION":15.29554512,"ECCENTRICITY":0.00120742,"INCLINATION":97.3381,"RA_OF_ASC_NODE":115.826,"ARG_OF_PERICENTER":186.5211,"MEAN_ANOMALY":173.5875,"EPHEMERIS_TYPE":0,"CLASSIFICATION_TYPE":"U","NORAD_CAT_ID":49400,"ELEMENT_SET_NO":999,"REV_AT_EPOCH":23897,"BSTAR":0.00042758039,"MEAN_MOTION_DOT":0.00012206,"MEAN_MOTION_DDOT":0},{"OBJECT_NAME":"STARLINK-35835","OBJECT_ID":"2025-268N","EPOCH":"2026-03-09T03:53:51.352224","MEAN_MOTION":15.27575703,"ECCENTRICITY":0.00013269,"INCLINATION":43.003,"RA_OF_ASC_NODE":349.6479,"ARG_OF_PERICENTER":299.2565,"MEAN_ANOMALY":60.8154,"EPHEMERIS_TYPE":0,"CLASSIFICATION_TYPE":"U","NORAD_CAT_ID":66569,"ELEMENT_SET_NO":999,"REV_AT_EPOCH":1788,"BSTAR":0.0011639381,"MEAN_MOTION_DOT":0.00031901,"MEAN_MOTION_DDOT":0}]
